{
  "type": "FeatureCollection",
  "features": [
    {
      "type": "Feature",
      "properties": {
        "norad_id": 34589,
        "name": "COSMOS 2251 DEB",
        "group": "cosmos-2251-debris",
        "lat": -14.548147942599744,
        "lon": 36.47267544932895,
        "alt_km": 762.1719463529271,
        "timestamp": "2025-12-21T16:47:55.133643+00:00",
        "meta_object_name": "COSMOS 2251 DEB",
        "meta_object_id": "1993-036WB",
        "meta_epoch": "2025-12-21T05:01:09.143904",
        "meta_mean_motion": 13.86061399,
        "meta_eccentricity": 0.02522858,
        "meta_inclination": 73.9251,
        "meta_ra_of_asc_node": 41.6,
        "meta_arg_of_pericenter": 343.2461,
        "meta_mean_anomaly": 73.4589,
        "meta_ephemeris_type": 0,
        "meta_classification_type": "U",
        "meta_norad_cat_id": 34589,
        "meta_element_set_no": 999,
        "meta_rev_at_epoch": 84829,
        "meta_bstar": 0.00030189158,
        "meta_mean_motion_dot": 4.21e-06,
        "meta_mean_motion_ddot": 0,
        "tle_line1": "1 34589U 93036WB  25355.20913361  .00000421  00000+0  30189-3 0  9995",
        "tle_line2": "2 34589  73.9251  41.6000 0252285 343.2461  73.4589 13.86061399848299"
      },
      "geometry": {
        "type": "Point",
        "coordinates": [
          36.47267544932895,
          -14.548147942599744
        ]
      }
    },
    {
      "type": "Feature",
      "properties": {
        "norad_id": 34590,
        "name": "COSMOS 2251 DEB",
        "group": "cosmos-2251-debris",
        "lat": 23.902319542685962,
        "lon": -47.11503203478036,
        "alt_km": 676.2636059739934,
        "timestamp": "2025-12-21T16:47:55.133653+00:00",
        "meta_object_name": "COSMOS 2251 DEB",
        "meta_object_id": "1993-036WC",
        "meta_epoch": "2025-12-21T07:27:55.343808",
        "meta_mean_motion": 14.54835172,
        "meta_eccentricity": 0.0068035,
        "meta_inclination": 74.0443,
        "meta_ra_of_asc_node": 306.3359,
        "meta_arg_of_pericenter": 73.4135,
        "meta_mean_anomaly": 76.2635,
        "meta_ephemeris_type": 0,
        "meta_classification_type": "U",
        "meta_norad_cat_id": 34590,
        "meta_element_set_no": 999,
        "meta_rev_at_epoch": 89245,
        "meta_bstar": 0.00011222,
        "meta_mean_motion_dot": 4.67e-06,
        "meta_mean_motion_ddot": 0,
        "tle_line1": "1 34590U 93036WC  25355.31105722  .00000467  00000+0  11222-3 0  9990",
        "tle_line2": "2 34590  74.0443 306.3359 0068035  73.4135  76.2635 14.54835172892456"
      },
      "geometry": {
        "type": "Point",
        "coordinates": [
          -47.11503203478036,
          23.902319542685962
        ]
      }
    },
    {
      "type": "Feature",
      "properties": {
        "norad_id": 34609,
        "name": "COSMOS 2251 DEB",
        "group": "cosmos-2251-debris",
        "lat": 9.470197604813205,
        "lon": -92.44527956437494,
        "alt_km": 898.1784548862643,
        "timestamp": "2025-12-21T16:47:55.133663+00:00",
        "meta_object_name": "COSMOS 2251 DEB",
        "meta_object_id": "1993-036WE",
        "meta_epoch": "2025-12-20T13:02:49.886880",
        "meta_mean_motion": 14.21817588,
        "meta_eccentricity": 0.0145584,
        "meta_inclination": 73.7329,
        "meta_ra_of_asc_node": 92.459,
        "meta_arg_of_pericenter": 310.7374,
        "meta_mean_anomaly": 64.0631,
        "meta_ephemeris_type": 0,
        "meta_classification_type": "U",
        "meta_norad_cat_id": 34609,
        "meta_element_set_no": 999,
        "meta_rev_at_epoch": 86743,
        "meta_bstar": 0.00051907,
        "meta_mean_motion_dot": 1.244e-05,
        "meta_mean_motion_ddot": 0,
        "tle_line1": "1 34609U 93036WE  25354.54363295  .00001244  00000+0  51907-3 0  9994",
        "tle_line2": "2 34609  73.7329  92.4590 0145584 310.7374  64.0631 14.21817588867439"
      },
      "geometry": {
        "type": "Point",
        "coordinates": [
          -92.44527956437494,
          9.470197604813205
        ]
      }
    },
    {
      "type": "Feature",
      "properties": {
        "norad_id": 34610,
        "name": "COSMOS 2251 DEB",
        "group": "cosmos-2251-debris",
        "lat": -39.07875230065275,
        "lon": 80.06596713942874,
        "alt_km": 992.8131477463048,
        "timestamp": "2025-12-21T16:47:55.133673+00:00",
        "meta_object_name": "COSMOS 2251 DEB",
        "meta_object_id": "1993-036WF",
        "meta_epoch": "2025-12-16T19:43:22.866816",
        "meta_mean_motion": 14.07083274,
        "meta_eccentricity": 0.01805005,
        "meta_inclination": 74.0182,
        "meta_ra_of_asc_node": 255.1605,
        "meta_arg_of_pericenter": 24.866,
        "meta_mean_anomaly": 336.104,
        "meta_ephemeris_type": 0,
        "meta_classification_type": "U",
        "meta_norad_cat_id": 34610,
        "meta_element_set_no": 999,
        "meta_rev_at_epoch": 85617,
        "meta_bstar": 0.0012903668,
        "meta_mean_motion_dot": 2.479e-05,
        "meta_mean_motion_ddot": 0,
        "tle_line1": "1 34610U 93036WF  25350.82179244  .00002479  00000+0  12904-2 0  9996",
        "tle_line2": "2 34610  74.0182 255.1605 0180500  24.8660 336.1040 14.07083274856172"
      },
      "geometry": {
        "type": "Point",
        "coordinates": [
          80.06596713942874,
          -39.07875230065275
        ]
      }
    },
    {
      "type": "Feature",
      "properties": {
        "norad_id": 34611,
        "name": "COSMOS 2251 DEB",
        "group": "cosmos-2251-debris",
        "lat": 46.62260920600644,
        "lon": -113.9884324884561,
        "alt_km": 642.5675639749834,
        "timestamp": "2025-12-21T16:47:55.133683+00:00",
        "meta_object_name": "COSMOS 2251 DEB",
        "meta_object_id": "1993-036WG",
        "meta_epoch": "2025-12-21T06:32:35.735712",
        "meta_mean_motion": 14.69642922,
        "meta_eccentricity": 0.0021831,
        "meta_inclination": 74.0542,
        "meta_ra_of_asc_node": 84.4511,
        "meta_arg_of_pericenter": 122.9133,
        "meta_mean_anomaly": 268.0383,
        "meta_ephemeris_type": 0,
        "meta_classification_type": "U",
        "meta_norad_cat_id": 34611,
        "meta_element_set_no": 999,
        "meta_rev_at_epoch": 88516,
        "meta_bstar": 0.0010369,
        "meta_mean_motion_dot": 6.164e-05,
        "meta_mean_motion_ddot": 0,
        "tle_line1": "1 34611U 93036WG  25355.27263583  .00006164  00000+0  10369-2 0  9999",
        "tle_line2": "2 34611  74.0542  84.4511 0021831 122.9133 268.0383 14.69642922885161"
      },
      "geometry": {
        "type": "Point",
        "coordinates": [
          -113.9884324884561,
          46.62260920600644
        ]
      }
    },
    {
      "type": "Feature",
      "properties": {
        "norad_id": 34613,
        "name": "COSMOS 2251 DEB",
        "group": "cosmos-2251-debris",
        "lat": -73.83924185395614,
        "lon": 165.2743093706254,
        "alt_km": 889.6892760208057,
        "timestamp": "2025-12-21T16:47:55.133693+00:00",
        "meta_object_name": "COSMOS 2251 DEB",
        "meta_object_id": "1993-036WJ",
        "meta_epoch": "2025-12-21T04:27:30.553920",
        "meta_mean_motion": 14.26478913,
        "meta_eccentricity": 0.01105196,
        "meta_inclination": 73.9635,
        "meta_ra_of_asc_node": 263.2159,
        "meta_arg_of_pericenter": 92.8167,
        "meta_mean_anomaly": 55.7481,
        "meta_ephemeris_type": 0,
        "meta_classification_type": "U",
        "meta_norad_cat_id": 34613,
        "meta_element_set_no": 999,
        "meta_rev_at_epoch": 86583,
        "meta_bstar": 0.00085437024,
        "meta_mean_motion_dot": 2.17e-05,
        "meta_mean_motion_ddot": 0,
        "tle_line1": "1 34613U 93036WJ  25355.18577030  .00002170  00000+0  85437-3 0  9998",
        "tle_line2": "2 34613  73.9635 263.2159 0110519  92.8167  55.7481 14.26478913865835"
      },
      "geometry": {
        "type": "Point",
        "coordinates": [
          165.2743093706254,
          -73.83924185395614
        ]
      }
    },
    {
      "type": "Feature",
      "properties": {
        "norad_id": 34614,
        "name": "COSMOS 2251 DEB",
        "group": "cosmos-2251-debris",
        "lat": -68.66081898726028,
        "lon": -164.49477127242713,
        "alt_km": 776.2208757083154,
        "timestamp": "2025-12-21T16:47:55.133703+00:00",
        "meta_object_name": "COSMOS 2251 DEB",
        "meta_object_id": "1993-036WK",
        "meta_epoch": "2025-12-18T23:21:59.727744",
        "meta_mean_motion": 14.17670739,
        "meta_eccentricity": 0.0197223,
        "meta_inclination": 73.8822,
        "meta_ra_of_asc_node": 332.666,
        "meta_arg_of_pericenter": 325.6345,
        "meta_mean_anomaly": 63.1604,
        "meta_ephemeris_type": 0,
        "meta_classification_type": "U",
        "meta_norad_cat_id": 34614,
        "meta_element_set_no": 999,
        "meta_rev_at_epoch": 84855,
        "meta_bstar": 0.0046815228,
        "meta_mean_motion_dot": 0.00011531,
        "meta_mean_motion_ddot": 0,
        "tle_line1": "1 34614U 93036WK  25352.97360796  .00011531  00000+0  46815-2 0  9999",
        "tle_line2": "2 34614  73.8822 332.6660 0197223 325.6345  63.1604 14.17670739848553"
      },
      "geometry": {
        "type": "Point",
        "coordinates": [
          -164.49477127242713,
          -68.66081898726028
        ]
      }
    }
  ]
}